[{"OBJECT_NAME":"STARLINK-32103","OBJECT_ID":"2024-086G","EPOCH":"2026-03-09T22:43:55.924320","MEAN_MOTION":15.27571172,"ECCENTRICITY":0.00013899,"INCLINATION":43.0017,"RA_OF_ASC_NODE":47.8761,"ARG_OF_PERICENTER":286.6594,"MEAN_ANOMALY":73.4105,"EPHEMERIS_TYPE":0,"CLASSIFICATION_TYPE":"U","NORAD_CAT_ID":59688,"ELEMENT_SET_NO":999,"REV_AT_EPOCH":10427,"BSTAR":-1.804571e-5,"MEAN_MOTION_DOT":-7.59e-6,"MEAN_MOTION_DDOT":0},{"OBJECT_NAME":"CZ-6A DEB","OBJECT_ID":"2024-140KE","EPOCH":"2026-03-09T13:17:54.060288","MEAN_MOTION":15.16973657,"ECCENTRICITY":0.0047014,"INCLINATION":88.8608,"RA_OF_ASC_NODE":269.4441,"ARG_OF_PERICENTER":134.0266,"MEAN_ANOMALY":226.4867,"EPHEMERIS_TYPE":0,"CLASSIFICATION_TYPE":"U","NORAD_CAT_ID":60875,"ELEMENT_SET_NO":999,"REV_AT_EPOCH":8467,"BSTAR":0.004516425,"MEAN_MOTION_DOT":0.00092692,"MEAN_MOTION_DDOT":0}]
